[{"OBJECT_NAME":"ONEWEB-0027","OBJECT_ID":"2020-020J","EPOCH":"2026-02-07T23:40:39.938304","MEAN_MOTION":13.1765074,"ECCENTRICITY":0.0002125,"INCLINATION":87.9108,"RA_OF_ASC_NODE":31.5071,"ARG_OF_PERICENTER":96.6826,"MEAN_ANOMALY":263.4547,"EPHEMERIS_TYPE":0,"CLASSIFICATION_TYPE":"U","NORAD_CAT_ID":45432,"ELEMENT_SET_NO":999,"REV_AT_EPOCH":28934,"BSTAR":-6.3254e-5,"MEAN_MOTION_DOT":-1.2e-7,"MEAN_MOTION_DDOT":0},{"OBJECT_NAME":"ONEWEB-0064","OBJECT_ID":"2020-020K","EPOCH":"2026-02-08T00:21:58.823424","MEAN_MOTION":13.11415016,"ECCENTRICITY":0.00018711,"INCLINATION":87.8819,"RA_OF_ASC_NODE":46.7709,"ARG_OF_PERICENTER":95.0642,"MEAN_ANOMALY":265.07,"EPHEMERIS_TYPE":0,"CLASSIFICATION_TYPE":"U","NORAD_CAT_ID":45433,"ELEMENT_SET_NO":999,"REV_AT_EPOCH":28575,"BSTAR":0.0012149148,"MEAN_MOTION_DOT":4.43e-6,"MEAN_MOTION_DDOT":0},{"OBJECT_NAME":"ONEWEB-0018","OBJECT_ID":"2020-020L","EPOCH":"2026-02-08T01:08:20.500800","MEAN_MOTION":13.11415992,"ECCENTRICITY":0.00016608,"INCLINATION":87.8827,"RA_OF_ASC_NODE":46.7593,"ARG_OF_PERICENTER":89.4066,"MEAN_ANOMALY":270.7252,"EPHEMERIS_TYPE":0,"CLASSIFICATION_TYPE":"U","NORAD_CAT_ID":45434,"ELEMENT_SET_NO":999,"REV_AT_EPOCH":28570,"BSTAR":-0.0013968906,"MEAN_MOTION_DOT":-4.82e-6,"MEAN_MOTION_DDOT":0},{"OBJECT_NAME":"ONEWEB-0083","OBJECT_ID":"2020-020M","EPOCH":"2026-02-08T00:54:56.055456","MEAN_MOTION":13.1141686,"ECCENTRICITY":0.00017927,"INCLINATION":87.8824,"RA_OF_ASC_NODE":46.7488,"ARG_OF_PERICENTER":91.5551,"MEAN_ANOMALY":268.5782,"EPHEMERIS_TYPE":0,"CLASSIFICATION_TYPE":"U","NORAD_CAT_ID":45435,"ELEMENT_SET_NO":999,"REV_AT_EPOCH":28574,"BSTAR":-0.0012872318,"MEAN_MOTION_DOT":-4.43e-6,"MEAN_MOTION_DDOT":0},{"OBJECT_NAME":"ONEWEB-0095","OBJECT_ID":"2020-020N","EPOCH":"2026-02-08T00:41:42.449856","MEAN_MOTION":13.11414543,"ECCENTRICITY":0.00026149,"INCLINATION":87.8822,"RA_OF_ASC_NODE":46.7601,"ARG_OF_PERICENTER":90.3518,"MEAN_ANOMALY":269.7909,"EPHEMERIS_TYPE":0,"CLASSIFICATION_TYPE":"U","NORAD_CAT_ID":45436,"ELEMENT_SET_NO":999,"REV_AT_EPOCH":28574,"BSTAR":-0.00045848574,"MEAN_MOTION_DOT":-1.5e-6,"MEAN_MOTION_DDOT":0},{"OBJECT_NAME":"ONEWEB-0092","OBJECT_ID":"2020-020P","EPOCH":"2026-02-08T01:51:06.369984","MEAN_MOTION":13.11416015,"ECCENTRICITY":0.00021747,"INCLINATION":87.8823,"RA_OF_ASC_NODE":46.7503,"ARG_OF_PERICENTER":84.7329,"MEAN_ANOMALY":275.4047,"EPHEMERIS_TYPE":0,"CLASSIFICATION_TYPE":"U","NORAD_CAT_ID":45437,"ELEMENT_SET_NO":999,"REV_AT_EPOCH":28586,"BSTAR":0.0012912156,"MEAN_MOTION_DOT":4.7e-6,"MEAN_MOTION_DDOT":0},{"OBJECT_NAME":"ONEWEB-0085","OBJECT_ID":"2020-020Q","EPOCH":"2026-02-08T00:53:42.256896","MEAN_MOTION":13.11415897,"ECCENTRICITY":0.00018673,"INCLINATION":87.8817,"RA_OF_ASC_NODE":46.7639,"ARG_OF_PERICENTER":89.7562,"MEAN_ANOMALY":270.378,"EPHEMERIS_TYPE":0,"CLASSIFICATION_TYPE":"U","NORAD_CAT_ID":45438,"ELEMENT_SET_NO":999,"REV_AT_EPOCH":28574,"BSTAR":-0.0012601091,"MEAN_MOTION_DOT":-4.34e-6,"MEAN_MOTION_DDOT":0},{"OBJECT_NAME":"ONEWEB-0096","OBJECT_ID":"2020-020R","EPOCH":"2026-02-08T00:56:08.564064","MEAN_MOTION":13.11415963,"ECCENTRICITY":0.00018204,"INCLINATION":87.8828,"RA_OF_ASC_NODE":46.7492,"ARG_OF_PERICENTER":88.2144,"MEAN_ANOMALY":271.9192,"EPHEMERIS_TYPE":0,"CLASSIFICATION_TYPE":"U","NORAD_CAT_ID":45439,"ELEMENT_SET_NO":999,"REV_AT_EPOCH":28573,"BSTAR":-0.0013616263,"MEAN_MOTION_DOT":-4.7e-6,"MEAN_MOTION_DDOT":0},{"OBJECT_NAME":"ONEWEB-0037","OBJECT_ID":"2020-020S","EPOCH":"2026-02-08T00:28:05.081664","MEAN_MOTION":13.11415974,"ECCENTRICITY":0.00019203,"INCLINATION":87.8836,"RA_OF_ASC_NODE":46.7269,"ARG_OF_PERICENTER":88.0752,"MEAN_ANOMALY":272.0595,"EPHEMERIS_TYPE":0,"CLASSIFICATION_TYPE":"U","NORAD_CAT_ID":45440,"ELEMENT_SET_NO":999,"REV_AT_EPOCH":28576,"BSTAR":0.00051870215,"MEAN_MOTION_DOT":1.97e-6,"MEAN_MOTION_DDOT":0},{"OBJECT_NAME":"ONEWEB-0042","OBJECT_ID":"2020-020T","EPOCH":"2026-02-08T00:41:19.212576","MEAN_MOTION":13.11416859,"ECCENTRICITY":0.00018199,"INCLINATION":87.8826,"RA_OF_ASC_NODE":46.7497,"ARG_OF_PERICENTER":86.808,"MEAN_ANOMALY":273.3256,"EPHEMERIS_TYPE":0,"CLASSIFICATION_TYPE":"U","NORAD_CAT_ID":45441,"ELEMENT_SET_NO":999,"REV_AT_EPOCH":28573,"BSTAR":0.0015803551,"MEAN_MOTION_DOT":5.73e-6,"MEAN_MOTION_DDOT":0},{"OBJECT_NAME":"ONEWEB-0098","OBJECT_ID":"2020-020U","EPOCH":"2026-02-08T00:35:23.531424","MEAN_MOTION":13.11415983,"ECCENTRICITY":0.00017881,"INCLINATION":87.8825,"RA_OF_ASC_NODE":46.7623,"ARG_OF_PERICENTER":92.0402,"MEAN_ANOMALY":268.0931,"EPHEMERIS_TYPE":0,"CLASSIFICATION_TYPE":"U","NORAD_CAT_ID":45442,"ELEMENT_SET_NO":999,"REV_AT_EPOCH":28571,"BSTAR":-7.8559871e-5,"MEAN_MOTION_DOT":-1.5e-7,"MEAN_MOTION_DDOT":0},{"OBJECT_NAME":"ONEWEB-0055","OBJECT_ID":"2020-020V","EPOCH":"2026-02-08T02:00:52.155936","MEAN_MOTION":13.11415512,"ECCENTRICITY":0.00018294,"INCLINATION":87.8823,"RA_OF_ASC_NODE":46.7507,"ARG_OF_PERICENTER":90.1637,"MEAN_ANOMALY":269.97,"EPHEMERIS_TYPE":0,"CLASSIFICATION_TYPE":"U","NORAD_CAT_ID":45443,"ELEMENT_SET_NO":999,"REV_AT_EPOCH":28569,"BSTAR":0.0015413154,"MEAN_MOTION_DOT":5.59e-6,"MEAN_MOTION_DDOT":0},{"OBJECT_NAME":"ONEWEB-0093","OBJECT_ID":"2020-020W","EPOCH":"2026-02-08T01:25:39.096192","MEAN_MOTION":13.11418237,"ECCENTRICITY":0.00017855,"INCLINATION":87.8829,"RA_OF_ASC_NODE":46.7437,"ARG_OF_PERICENTER":76.1598,"MEAN_ANOMALY":283.9729,"EPHEMERIS_TYPE":0,"CLASSIFICATION_TYPE":"U","NORAD_CAT_ID":45444,"ELEMENT_SET_NO":999,"REV_AT_EPOCH":28575,"BSTAR":-0.00052212193,"MEAN_MOTION_DOT":-1.72e-6,"MEAN_MOTION_DDOT":0},{"OBJECT_NAME":"ONEWEB-0029","OBJECT_ID":"2020-020X","EPOCH":"2026-02-07T23:58:46.904736","MEAN_MOTION":13.114188,"ECCENTRICITY":0.00017073,"INCLINATION":87.8831,"RA_OF_ASC_NODE":46.7678,"ARG_OF_PERICENTER":85.3124,"MEAN_ANOMALY":274.8199,"EPHEMERIS_TYPE":0,"CLASSIFICATION_TYPE":"U","NORAD_CAT_ID":45445,"ELEMENT_SET_NO":999,"REV_AT_EPOCH":28572,"BSTAR":0.0013155544,"MEAN_MOTION_DOT":4.79e-6,"MEAN_MOTION_DDOT":0},{"OBJECT_NAME":"ONEWEB-0068","OBJECT_ID":"2020-020Y","EPOCH":"2026-02-08T01:25:15.017376","MEAN_MOTION":13.11418486,"ECCENTRICITY":0.00017232,"INCLINATION":87.8829,"RA_OF_ASC_NODE":46.7464,"ARG_OF_PERICENTER":85.6055,"MEAN_ANOMALY":274.5269,"EPHEMERIS_TYPE":0,"CLASSIFICATION_TYPE":"U","NORAD_CAT_ID":45446,"ELEMENT_SET_NO":999,"REV_AT_EPOCH":28567,"BSTAR":-0.00043183948,"MEAN_MOTION_DOT":-1.4e-6,"MEAN_MOTION_DDOT":0},{"OBJECT_NAME":"ONEWEB-0046","OBJECT_ID":"2020-020Z","EPOCH":"2026-02-08T01:13:14.292768","MEAN_MOTION":13.11418115,"ECCENTRICITY":0.0001958,"INCLINATION":87.8827,"RA_OF_ASC_NODE":46.7552,"ARG_OF_PERICENTER":82.2973,"MEAN_ANOMALY":277.8377,"EPHEMERIS_TYPE":0,"CLASSIFICATION_TYPE":"U","NORAD_CAT_ID":45447,"ELEMENT_SET_NO":999,"REV_AT_EPOCH":28568,"BSTAR":-0.0012648735,"MEAN_MOTION_DOT":-4.36e-6,"MEAN_MOTION_DDOT":0},{"OBJECT_NAME":"ONEWEB-0063","OBJECT_ID":"2020-020AA","EPOCH":"2026-02-08T01:54:46.137888","MEAN_MOTION":13.11416903,"ECCENTRICITY":0.0002066,"INCLINATION":87.8828,"RA_OF_ASC_NODE":46.7468,"ARG_OF_PERICENTER":84.9808,"MEAN_ANOMALY":275.1556,"EPHEMERIS_TYPE":0,"CLASSIFICATION_TYPE":"U","NORAD_CAT_ID":45448,"ELEMENT_SET_NO":999,"REV_AT_EPOCH":28577,"BSTAR":0.0014779076,"MEAN_MOTION_DOT":5.37e-6,"MEAN_MOTION_DDOT":0},{"OBJECT_NAME":"ONEWEB-0019","OBJECT_ID":"2020-020AB","EPOCH":"2026-02-08T01:00:49.326048","MEAN_MOTION":13.1141811,"ECCENTRICITY":0.00017947,"INCLINATION":87.8815,"RA_OF_ASC_NODE":46.7516,"ARG_OF_PERICENTER":95.0061,"MEAN_ANOMALY":265.1272,"EPHEMERIS_TYPE":0,"CLASSIFICATION_TYPE":"U","NORAD_CAT_ID":45449,"ELEMENT_SET_NO":999,"REV_AT_EPOCH":28561,"BSTAR":-0.0014947421,"MEAN_MOTION_DOT":-5.17e-6,"MEAN_MOTION_DDOT":0},{"OBJECT_NAME":"ONEWEB-0094","OBJECT_ID":"2020-020AC","EPOCH":"2026-02-08T00:51:07.689888","MEAN_MOTION":13.17647556,"ECCENTRICITY":0.00017315,"INCLINATION":87.9111,"RA_OF_ASC_NODE":31.4945,"ARG_OF_PERICENTER":88.2521,"MEAN_ANOMALY":271.8809,"EPHEMERIS_TYPE":0,"CLASSIFICATION_TYPE":"U","NORAD_CAT_ID":45450,"ELEMENT_SET_NO":999,"REV_AT_EPOCH":28930,"BSTAR":9.198959e-6,"MEAN_MOTION_DOT":1.6e-7,"MEAN_MOTION_DDOT":0},{"OBJECT_NAME":"ONEWEB-0087","OBJECT_ID":"2020-020AD","EPOCH":"2026-02-08T02:09:12.656448","MEAN_MOTION":13.11415924,"ECCENTRICITY":0.00016296,"INCLINATION":87.8838,"RA_OF_ASC_NODE":46.7093,"ARG_OF_PERICENTER":86.7738,"MEAN_ANOMALY":273.3576,"EPHEMERIS_TYPE":0,"CLASSIFICATION_TYPE":"U","NORAD_CAT_ID":45451,"ELEMENT_SET_NO":999,"REV_AT_EPOCH":28566,"BSTAR":0.0014719001,"MEAN_MOTION_DOT":5.34e-6,"MEAN_MOTION_DDOT":0},{"OBJECT_NAME":"ONEWEB-0082","OBJECT_ID":"2020-020AE","EPOCH":"2026-02-08T02:04:31.456416","MEAN_MOTION":13.11415266,"ECCENTRICITY":0.00016275,"INCLINATION":87.884,"RA_OF_ASC_NODE":46.7345,"ARG_OF_PERICENTER":87.0167,"MEAN_ANOMALY":273.1147,"EPHEMERIS_TYPE":0,"CLASSIFICATION_TYPE":"U","NORAD_CAT_ID":45452,"ELEMENT_SET_NO":999,"REV_AT_EPOCH":28575,"BSTAR":0.0014606354,"MEAN_MOTION_DOT":5.3e-6,"MEAN_MOTION_DDOT":0},{"OBJECT_NAME":"ONEWEB-0050","OBJECT_ID":"2020-020AF","EPOCH":"2026-02-08T01:44:25.905984","MEAN_MOTION":14.8988661,"ECCENTRICITY":0.00058205,"INCLINATION":88.9196,"RA_OF_ASC_NODE":250.8116,"ARG_OF_PERICENTER":83.9871,"MEAN_ANOMALY":276.202,"EPHEMERIS_TYPE":0,"CLASSIFICATION_TYPE":"U","NORAD_CAT_ID":45453,"ELEMENT_SET_NO":999,"REV_AT_EPOCH":32115,"BSTAR":0.00024788455,"MEAN_MOTION_DOT":2.404e-5,"MEAN_MOTION_DDOT":0},{"OBJECT_NAME":"ONEWEB-0034","OBJECT_ID":"2020-020AG","EPOCH":"2026-02-08T00:45:08.594208","MEAN_MOTION":13.11417192,"ECCENTRICITY":0.00018268,"INCLINATION":87.8822,"RA_OF_ASC_NODE":46.7524,"ARG_OF_PERICENTER":90.1803,"MEAN_ANOMALY":269.9534,"EPHEMERIS_TYPE":0,"CLASSIFICATION_TYPE":"U","NORAD_CAT_ID":45454,"ELEMENT_SET_NO":999,"REV_AT_EPOCH":28566,"BSTAR":-0.00060028081,"MEAN_MOTION_DOT":-2.0e-6,"MEAN_MOTION_DDOT":0}]
